[{"OBJECT_NAME":"XW-3 (CAS-9)","OBJECT_ID":"2021-131B","EPOCH":"2026-03-09T23:45:34.750656","MEAN_MOTION":14.41251922,"ECCENTRICITY":0.00048592,"INCLINATION":98.4957,"RA_OF_ASC_NODE":161.9431,"ARG_OF_PERICENTER":49.1215,"MEAN_ANOMALY":311.0395,"EPHEMERIS_TYPE":0,"CLASSIFICATION_TYPE":"U","NORAD_CAT_ID":50466,"ELEMENT_SET_NO":999,"REV_AT_EPOCH":22082,"BSTAR":0.00025329897,"MEAN_MOTION_DOT":7.74e-6,"MEAN_MOTION_DDOT":0},{"OBJECT_NAME":"CZ-6A DEB","OBJECT_ID":"2022-151QR","EPOCH":"2026-03-09T05:26:52.774080","MEAN_MOTION":14.53999566,"ECCENTRICITY":0.00827729,"INCLINATION":99.0521,"RA_OF_ASC_NODE":173.8699,"ARG_OF_PERICENTER":334.081,"MEAN_ANOMALY":25.6249,"EPHEMERIS_TYPE":0,"CLASSIFICATION_TYPE":"U","NORAD_CAT_ID":54904,"ELEMENT_SET_NO":999,"REV_AT_EPOCH":17423,"BSTAR":0.0017820063,"MEAN_MOTION_DOT":7.812e-5,"MEAN_MOTION_DDOT":0}]
